NORAD_CAT_ID,OBJECT_NAME,OBJECT_TYPE,EPOCH,MEAN_MOTION,ECCENTRICITY,INCLINATION,RA_OF_ASC_NODE,ARG_OF_PERICENTER,MEAN_ANOMALY,BSTAR,MEAN_MOTION_DOT,MEAN_MOTION_DDOT,TLE_LINE0,TLE_LINE1,TLE_LINE2,SEMIMAJOR_AXIS,PERIOD,APOGEE,PERIGEE,DECAYED
53968.0,STARLINK-4629,PAYLOAD,2023-06-05 23:33:58,15.08840894,0.0001165,53.2163,67.8157,91.061,269.0515,-6.9713e-05,-1.397e-05,0.0,0 STARLINK-4629,1 53968U 22125E   23156.98192939 -.00001397  00000-0 -69713-4 0  9992,2 53968  53.2163  67.8157 0001165  91.0610 269.0515 15.08840894 37260,6917.878,95.437,540.549,538.937,0.0
53968.0,STARLINK-4629,PAYLOAD,2023-06-06 04:20:07,15.08845693,0.0001182,53.2166,66.9223,89.5535,270.5592,-1.3021e-05,-4.95e-06,0.0,0 STARLINK-4629,1 53968U 22125E   23157.18064443 -.00000495  00000-0 -13021-4 0  9992,2 53968  53.2166  66.9223 0001182  89.5535 270.5592 15.08845693 37224,6917.863,95.437,540.546,538.91,0.0
53968.0,STARLINK-4629,PAYLOAD,2023-06-07 02:35:31,15.08838933,0.0001224,53.2167,62.7579,88.4952,271.618,0.00010881,1.444e-05,0.0,0 STARLINK-4629,1 53968U 22125E   23158.10800767  .00001444  00000-0  10881-3 0  9995,2 53968  53.2167  62.7579 0001224  88.4952 271.6180 15.08838933 37438,6917.884,95.438,540.595,538.902,0.0
53968.0,STARLINK-4629,PAYLOAD,2023-06-07 21:40:10,15.08831909,0.0001476,53.2184,59.1886,76.2725,283.8431,7.9876e-05,9.83e-06,0.0,0 STARLINK-4629,1 53968U 22125E   23158.90289587  .00000983  00000-0  79876-4 0  9991,2 53968  53.2184  59.1886 0001476  76.2725 283.8431 15.08831909 37485,6917.905,95.438,540.791,538.749,0.0
53968.0,STARLINK-4629,PAYLOAD,2023-06-08 00:50:56,15.08836947,0.0001369,53.2177,58.5953,72.1181,287.996,2.6742e-05,1.38e-06,0.0,0 STARLINK-4629,1 53968U 22125E   23159.03537504  .00000138  00000-0  26742-4 0  9997,2 53968  53.2177  58.5953 0001369  72.1181 287.9960 15.08836947 37576,6917.89,95.438,540.702,538.808,0.0
53968.0,STARLINK-4629,PAYLOAD,2023-06-09 10:14:02,15.08841807,0.0001353,53.2181,52.3522,82.5086,277.606,6.329e-05,7.2e-06,0.0,0 STARLINK-4629,1 53968U 22125E   23160.42641260  .00000720  00000-0  63290-4 0  9993,2 53968  53.2181  52.3522 0001353  82.5086 277.6060 15.08841807 37788,6917.875,95.437,540.676,538.804,0.0
53968.0,STARLINK-4629,PAYLOAD,2023-06-10 10:04:49,15.08837136,0.0001305,53.2176,47.8865,87.6267,272.4875,1.8002e-05,-1e-08,0.0,0 STARLINK-4629,1 53968U 22125E   23161.42001649 -.00000001  00000-0  18002-4 0  9999,2 53968  53.2176  47.8865 0001305  87.6267 272.4875 15.08837136 37939,6917.889,95.438,540.657,538.851,0.0
53968.0,STARLINK-4629,PAYLOAD,2023-06-10 13:15:35,15.08843401,0.0001122,53.2163,47.2917,106.7702,253.3413,-2.3581e-05,-6.63e-06,0.0,0 STARLINK-4629,1 53968U 22125E   23161.55249454 -.00000663  00000-0 -23581-4 0  9994,2 53968  53.2163  47.2917 0001122 106.7702 253.3413 15.08843401 37883,6917.87,95.437,540.511,538.959,0.0
53968.0,STARLINK-4629,PAYLOAD,2023-06-10 19:37:08,15.08837908,0.0001136,53.2174,46.1066,87.6526,272.4596,8.5118e-06,-1.52e-06,0.0,0 STARLINK-4629,1 53968U 22125E   23161.81745723 -.00000152  00000-0  85118-5 0  9990,2 53968  53.2174  46.1066 0001136  87.6526 272.4596 15.08837908 37928,6917.887,95.438,540.538,538.966,0.0
53968.0,STARLINK-4629,PAYLOAD,2023-06-11 03:34:03,15.08846351,0.0001183,53.2173,44.62,82.6636,277.449,8.0244e-05,9.9e-06,0.0,0 STARLINK-4629,1 53968U 22125E   23162.14864965  .00000990  00000-0  80244-4 0  9990,2 53968  53.2173  44.6200 0001183  82.6636 277.4490 15.08846351 38043,6917.861,95.437,540.544,538.908,0.0
53968.0,STARLINK-4629,PAYLOAD,2023-06-11 11:30:59,15.08838322,0.0001223,53.216,43.1332,83.7844,276.3288,4.174e-05,3.76e-06,0.0,0 STARLINK-4629,1 53968U 22125E   23162.47985519  .00000376  00000-0  41740-4 0  9991,2 53968  53.2160  43.1332 0001223  83.7844 276.3288 15.08838322 38027,6917.886,95.438,540.597,538.904,0.0
53968.0,STARLINK-4629,PAYLOAD,2023-06-11 16:17:08,15.08839123,0.0001182,53.2161,42.2412,82.802,277.3106,5.3456e-05,5.63e-06,0.0,0 STARLINK-4629,1 53968U 22125E   23162.67857405  .00000563  00000-0  53456-4 0  9990,2 53968  53.2161  42.2412 0001182  82.8020 277.3106 15.08839123 38128,6917.883,95.438,540.566,538.93,0.0
53968.0,STARLINK-4629,PAYLOAD,2023-06-11 22:38:41,15.08840554,0.0001081,53.2171,41.0511,86.5307,273.5809,6.5234e-05,7.51e-06,0.0,0 STARLINK-4629,1 53968U 22125E   23162.94353270  .00000751  00000-0  65234-4 0  9997,2 53968  53.2171  41.0511 0001081  86.5307 273.5809 15.08840554 38097,6917.879,95.438,540.492,538.996,0.0
53968.0,STARLINK-4629,PAYLOAD,2023-06-12 01:49:26,15.08850604,0.0001158,53.2171,40.4555,86.7837,273.3288,6.3606e-05,7.25e-06,0.0,0 STARLINK-4629,1 53968U 22125E   23163.07600585  .00000725  00000-0  63606-4 0  9998,2 53968  53.2171  40.4555 0001158  86.7837 273.3288 15.08850604 38189,6917.848,95.437,540.514,538.912,0.0
53968.0,STARLINK-4629,PAYLOAD,2023-06-12 19:18:42,15.08832336,0.0001056,53.2174,37.1861,89.1997,270.9117,1.2548e-05,-8.8e-07,0.0,0 STARLINK-4629,1 53968U 22125E   23163.80465975 -.00000088  00000-0  12548-4 0  9993,2 53968  53.2174  37.1861 0001056  89.1997 270.9117 15.08832336 38227,6917.904,95.438,540.499,539.038,0.0
53968.0,STARLINK-4629,PAYLOAD,2023-06-13 01:40:14,15.08839946,0.00011,53.2177,35.9952,84.3289,275.7829,2.2604e-05,7.2e-07,0.0,0 STARLINK-4629,1 53968U 22125E   23164.06961519  .00000072  00000-0  22604-4 0  9993,2 53968  53.2177  35.9952 0001100  84.3289 275.7829 15.08839946 38337,6917.881,95.438,540.507,538.985,0.0
53968.0,STARLINK-4629,PAYLOAD,2023-06-13 22:20:15,15.08840995,9.8e-05,53.2173,32.131,92.4712,267.6393,3.8899e-05,3.31e-06,0.0,0 STARLINK-4629,1 53968U 22125E   23164.93073509  .00000331  00000-0  38899-4 0  9993,2 53968  53.2173  32.1310 0000980  92.4712 267.6393 15.08840995 38394,6917.877,95.437,540.42,539.064,0.0
53968.0,STARLINK-4629,PAYLOAD,2023-06-14 14:14:08,15.08812175,8.14e-05,53.2172,29.1575,95.4624,264.6461,0.0003416,5.149e-05,0.0,0 STARLINK-4629,1 53968U 22125E   23165.59314871  .00005149  00000-0  34160-3 0  9994,2 53968  53.2172  29.1575 0000814  95.4624 264.6461 15.08812175 38496,6917.965,95.439,540.394,539.267,0.0
53968.0,STARLINK-4629,PAYLOAD,2023-06-14 15:49:30,15.08833588,9.02e-05,53.2173,28.8598,90.6896,269.4199,9.8775e-06,-1.31e-06,0.0,0 STARLINK-4629,1 53968U 22125E   23165.65938277 -.00000131  00000-0  98775-5 0  9994,2 53968  53.2173  28.8598 0000902  90.6896 269.4199 15.08833588 38575,6917.9,95.438,540.389,539.141,0.0
53968.0,STARLINK-4629,PAYLOAD,2023-06-15 01:21:48,15.08843145,8.82e-05,53.2173,27.0754,95.7791,264.3301,6.8949e-05,8.1e-06,0.0,0 STARLINK-4629,1 53968U 22125E   23166.05681525  .00000810  00000-0  68949-4 0  9992,2 53968  53.2173  27.0754 0000882  95.7791 264.3301 15.08843145 38633,6917.871,95.437,540.346,539.126,0.0
53968.0,STARLINK-4629,PAYLOAD,2023-06-15 14:04:54,15.08836766,0.000105,53.2166,24.6962,100.8952,259.2158,7.7799e-05,9.51e-06,0.0,0 STARLINK-4629,1 53968U 22125E   23166.58674012  .00000951  00000-0  77799-4 0  9992,2 53968  53.2166  24.6962 0001050 100.8952 259.2158 15.08836766 38717,6917.89,95.438,540.482,539.029,0.0
53968.0,STARLINK-4629,PAYLOAD,2023-06-15 23:37:12,15.08844109,9.58e-05,53.2174,22.9116,97.14,262.9701,0.00010214,1.338e-05,0.0,0 STARLINK-4629,1 53968U 22125E   23166.98417526  .00001338  00000-0  10214-3 0  9999,2 53968  53.2174  22.9116 0000958  97.1400 262.9701 15.08844109 38771,6917.868,95.437,540.396,539.07,0.0
53968.0,STARLINK-4629,PAYLOAD,2023-06-16 13:55:41,15.08841321,9.52e-05,53.2178,20.2363,86.3304,273.7797,0.00011522,1.547e-05,0.0,0 STARLINK-4629,1 53968U 22125E   23167.58033689  .00001547  00000-0  11522-3 0  9995,2 53968  53.2178  20.2363 0000952  86.3304 273.7797 15.08841321 38797,6917.876,95.437,540.4,539.083,0.0
53968.0,STARLINK-4629,PAYLOAD,2023-06-16 20:17:13,15.08843759,7.83e-05,53.2178,19.048,70.8685,289.2392,0.00016036,2.266e-05,0.0,0 STARLINK-4629,1 53968U 22125E   23167.84529292  .00002266  00000-0  16036-3 0  9998,2 53968  53.2178  19.0480 0000783  70.8685 289.2392 15.08843759 38830,6917.869,95.437,540.276,539.192,0.0
53968.0,STARLINK-4629,PAYLOAD,2023-06-17 07:24:55,15.08835959,8.8e-05,53.2169,16.9634,108.89,251.2188,3.4518e-05,2.62e-06,0.0,0 STARLINK-4629,1 53968U 22125E   23168.30898014  .00000262  00000-0  34518-4 0  9991,2 53968  53.2169  16.9634 0000880 108.8900 251.2188 15.08835959 38977,6917.893,95.438,540.367,539.149,0.0
53968.0,STARLINK-4629,PAYLOAD,2023-06-17 20:08:01,15.08834566,0.0001217,53.2164,14.5816,123.5941,236.5168,-8.3747e-05,-1.62e-05,0.0,0 STARLINK-4629,1 53968U 22125E   23168.83890657 -.00001620  00000-0 -83747-4 0  9993,2 53968  53.2164  14.5816 0001217 123.5941 236.5168 15.08834566 38980,6917.897,95.438,540.604,538.92,0.0
53968.0,STARLINK-4629,PAYLOAD,2023-06-18 07:15:43,15.08839288,0.0001027,53.2187,12.5031,107.7516,252.3588,-1.365e-05,-5.05e-06,0.0,0 STARLINK-4629,1 53968U 22125E   23169.30258401 -.00000505  00000-0 -13650-4 0  9998,2 53968  53.2187  12.5031 0001027 107.7516 252.3588 15.08839288 39050,6917.883,95.438,540.458,539.037,0.0
53968.0,STARLINK-4629,PAYLOAD,2023-06-18 19:58:47,15.08850528,8.04e-05,53.2173,10.1263,94.0022,266.1062,0.00013298,1.83e-05,0.0,0 STARLINK-4629,1 53968U 22125E   23169.83249266  .00001830  00000-0  13298-3 0  9992,2 53968  53.2173  10.1263 0000804  94.0022 266.1062 15.08850528 39137,6917.848,95.437,540.269,539.157,0.0
53968.0,STARLINK-4629,PAYLOAD,2023-06-18 23:09:33,15.08855542,9.47e-05,53.2181,9.5298,104.8452,255.2645,0.00010615,1.403e-05,0.0,0 STARLINK-4629,1 53968U 22125E   23169.96496983  .00001403  00000-0  10615-3 0  9992,2 53968  53.2181   9.5298 0000947 104.8452 255.2645 15.08855542 39228,6917.833,95.437,540.353,539.043,0.0
53968.0,STARLINK-4629,PAYLOAD,2023-06-19 19:49:35,15.08835989,9.14e-05,53.2179,5.665,95.5232,264.5864,0.00022327,3.267e-05,0.0,0 STARLINK-4629,1 53968U 22125E   23170.82610387  .00003267  00000-0  22327-3 0  9998,2 53968  53.2179   5.6650 0000914  95.5232 264.5864 15.08835989 39285,6917.893,95.438,540.39,539.125,0.0
